[
    {
        "Altitude(m)": 612513.9567100832,
        "Argument of Periapsis(deg)": 0.0,
        "Eccentricity": 0.0,
        "Inclination(deg)": 60.0,
        "Latitude(deg)": -28.136044473378316,
        "Longitude(deg)": -112.08690972445366,
        "Mean Anomaly(deg)": -147.27270000000001,
        "RAAN(deg)": 150.0,
        "Satellite Name": "Test1 673",
        "Satellite Number": 673,
        "Semi-Major Axis(m)": 6980739.136638005,
        "Time(s)": 0
    },
    {
        "Altitude(m)": 612708.3250706199,
        "Argument of Periapsis(deg)": 0.00010418945913296404,
        "Eccentricity": 0.0,
        "Inclination(deg)": 60.0,
        "Latitude(deg)": -28.647783913102028,
        "Longitude(deg)": -111.72967960462157,
        "Mean Anomaly(deg)": -146.65259385453817,
        "RAAN(deg)": 149.99957995086027,
        "Satellite Name": "Test1 673",
        "Satellite Number": 673,
        "Semi-Major Axis(m)": 6980739.136638005,
        "Time(s)": 10
    }
]